     2.100          NAVIGATION                              RINEX VERSION / TYPE
fic2rin                                 05/25/2012 02:34:58 PGM / RUN BY / DATE
                                                            END OF HEADER
 8 12  5 24 10  0  0.0  .128662213683D-05  .113686837722D-12  .000000000000D+00
     .870000000000D+02 -.656250000000D+00  .382980238378D-08 -.212903260157D+01
    -.121071934700D-06  .122511753580D-01  .185519456863D-05  .515367756844D+04
     .381600000000D+06 -.763684511185D-07  .213435999915D+01 -.171363353729D-06
     .997819964487D+00  .364656250000D+03 -.296935335150D+01 -.793033033009D-08
     .921466954226D-10  .100000000000D+01  .168900000000D+04  .000000000000D+00
     .340000000000D+01  .000000000000D+00 -.372529029846D-08  .870000000000D+02
     .374406000000D+06  .400000000000D+01
 9 12  5 24 10  0  0.0  .160300172865D-03  .250111042988D-11  .000000000000D+00
     .920000000000D+02  .172500000000D+02  .396373653411D-08 -.214643373416D+01
     .113807618618D-05  .175146393012D-01  .133551657200D-05  .515362325096D+04
     .381600000000D+06  .264495611191D-06  .202529656708D+01  .171363353729D-06
     .984342833144D+00  .364250000000D+03  .161754648679D+01 -.783889795014D-08
    -.535736601294D-11  .100000000000D+01  .168900000000D+04  .000000000000D+00
     .240000000000D+01  .000000000000D+00 -.558793544769D-08  .920000000000D+02
     .374406000000D+06  .400000000000D+01
10 12  5 24 10  0  0.0 -.391583889723D-04 -.113686837722D-11  .000000000000D+00
     .820000000000D+02  .418750000000D+01  .491770484215D-08  .228945251451D+01
     .800937414169D-07  .112793936860D-01  .939704477787D-05  .515369867134D+04
     .381600000000D+06 -.145286321640D-06 -.386055625452D-01 -.227242708206D-06
     .946290414554D+00  .190812500000D+03  .751445629778D+00 -.793675916931D-08
    -.498592196938D-09  .100000000000D+01  .168900000000D+04  .000000000000D+00
     .340000000000D+01  .000000000000D+00 -.232830643654D-08  .820000000000D+02
     .374406000000D+06  .400000000000D+01
11 12  5 24 10  0  0.0 -.264449976385D-03 -.375166564481D-11  .000000000000D+00
     .750000000000D+02  .196562500000D+02  .661563271051D-08 -.133950695525D+01
     .125914812088D-05  .129072980490D-01  .520795583725D-05  .515366805458D+04
     .381600000000D+06  .299885869026D-06 -.137962490737D+01  .204890966415D-06
     .887652481306D+00  .236437500000D+03  .104611005203D+01 -.895644450044D-08
     .356800576462D-09  .100000000000D+01  .168900000000D+04  .000000000000D+00
     .240000000000D+01  .000000000000D+00 -.116415321827D-07  .750000000000D+02
     .374406000000D+06  .400000000000D+01
12 12  5 24 10  0  0.0  .706952996552D-04  .204636307899D-11  .000000000000D+00
     .920000000000D+02 -.113031250000D+03  .381051586614D-08 -.170056321983D+01
    -.585801899433D-05  .412859395146D-02  .710040330887D-05  .515379911232D+04
     .381600000000D+06 -.875443220139D-07  .310736703266D+01 -.558793544769D-07
     .980124788280D+00  .253375000000D+03  .487133287628D-01 -.772460747519D-08
    -.339299847486D-10  .100000000000D+01  .168900000000D+04  .000000000000D+00
     .240000000000D+01  .000000000000D+00 -.121071934700D-07  .920000000000D+02
     .374406000000D+06  .400000000000D+01
13 12  5 24 10  0  0.0  .205452553928D-03 -.238742359215D-11  .000000000000D+00
     .800000000000D+02  .115718750000D+03  .380087260731D-08  .820329968527D+00
     .573880970478D-05  .500107300468D-02  .813975930214D-05  .515367194939D+04
     .381600000000D+06 -.223517417908D-07  .108017830393D+01 -.912696123123D-07
     .985811706763D+00  .235031250000D+03  .199883183775D+01 -.777818113532D-08
     .714315468392D-11  .100000000000D+01  .168900000000D+04  .000000000000D+00
     .240000000000D+01  .000000000000D+00 -.111758708954D-07  .800000000000D+02
     .374406000000D+06  .400000000000D+01
14 12  5 24 10  0  0.0  .203523319215D-03  .909494701773D-12  .000000000000D+00
     .430000000000D+02  .106093750000D+03  .398195157855D-08  .994510720906D+00
     .558979809284D-05  .631561060436D-02  .769272446632D-05  .515359759903D+04
     .381600000000D+06 -.931322574615D-07  .105349460356D+01  .465661287308D-07
     .978671630790D+00  .243750000000D+03 -.207003739885D+01 -.791604402072D-08
    -.350014579512D-10  .100000000000D+01  .168900000000D+04  .000000000000D+00
     .240000000000D+01  .000000000000D+00 -.884756445885D-08  .430000000000D+02
     .374406000000D+06  .400000000000D+01
15 12  5 24 10  0  0.0 -.914260745049D-04 -.113686837722D-12  .000000000000D+00
     .930000000000D+02  .941250000000D+02  .476198407004D-08  .507097800876D+00
     .492855906487D-05  .437931343913D-02  .800937414169D-05  .515356562614D+04
     .381600000000D+06  .670552253723D-07  .965774471858D+00  .279396772385D-07
     .945571118215D+00  .212281250000D+03  .553268288359D-01 -.818891252965D-08
    -.796461747257D-10  .100000000000D+01  .168900000000D+04  .000000000000D+00
     .240000000000D+01  .000000000000D+00 -.102445483208D-07  .930000000000D+02
     .374406000000D+06  .400000000000D+01
16 12  5 24 10  0  0.0 -.235923565924D-03 -.125055521494D-11  .000000000000D+00
     .116000000000D+03 -.113187500000D+03  .383623122300D-08  .227284860058D+01
    -.580772757530D-05  .665645604022D-02  .774674117565D-05  .515368090820D+04
     .381600000000D+06 -.614672899246D-07  .312550829063D+01  .968575477600D-07
     .980962481505D+00  .241968750000D+03 -.169474422033D-01 -.775960893314D-08
    -.158220876249D-09  .100000000000D+01  .168900000000D+04  .000000000000D+00
     .240000000000D+01  .000000000000D+00 -.977888703346D-08  .116000000000D+03
     .374406000000D+06  .400000000000D+01
17 12  5 24 10  0  0.0  .126436818391D-03 -.295585778076D-11  .000000000000D+00
     .840000000000D+02 -.281562500000D+02  .434303804782D-08  .130989481765D+01
    -.145100057125D-05  .735053431708D-02  .997632741928D-05  .515368900871D+04
     .381600000000D+06 -.117346644402D-06 -.211771741884D+01  .104308128357D-06
     .962796849862D+00  .184968750000D+03 -.229575710041D+01 -.790104339589D-08
     .502520932014D-09  .100000000000D+01  .168900000000D+04  .000000000000D+00
     .340000000000D+01  .000000000000D+00 -.107102096081D-07  .840000000000D+02
     .374406000000D+06  .400000000000D+01
19 12  5 24 10  0  0.0 -.268363859504D-03 -.375166564481D-11  .000000000000D+00
     .120000000000D+02 -.130312500000D+02  .449518724259D-08  .474937979736D+00
    -.616535544395D-06  .835908378940D-02  .957772135735D-05  .515357707214D+04
     .381600000000D+06  .115483999252D-06 -.206467261200D+01  .109896063805D-06
     .960128128870D+00  .194375000000D+03  .165206302946D+00 -.796068873750D-08
     .535736601294D-09  .100000000000D+01  .168900000000D+04  .000000000000D+00
     .240000000000D+01  .000000000000D+00 -.144354999065D-07  .120000000000D+02
     .374406000000D+06  .400000000000D+01
20 12  5 24 10  0  0.0  .635101459920D-04  .113686837722D-12  .000000000000D+00
     .123000000000D+03  .481250000000D+01  .528522015063D-08 -.313506824523D+01
     .294297933578D-06  .497327838093D-02  .871717929840D-05  .515369750786D+04
     .381600000000D+06  .132247805595D-06 -.103437657714D+00 -.100582838058D-06
     .930539403810D+00  .192406250000D+03  .129426951838D+01 -.820284168128D-08
    -.515735768179D-09  .100000000000D+01  .168900000000D+04  .000000000000D+00
     .340000000000D+01  .000000000000D+00 -.791624188423D-08  .123000000000D+03
     .374406000000D+06  .400000000000D+01
21 12  5 24 10  0  0.0 -.225715804845D-03 -.250111042988D-11  .000000000000D+00
     .670000000000D+02  .343750000000D+01  .559487590618D-08 -.242192457275D+01
    -.141561031342D-06  .191605901346D-01  .495649874210D-05  .515360500145D+04
     .381600000000D+06  .337138772011D-06 -.110052975901D+01 -.139698386192D-06
     .931016012280D+00  .265125000000D+03 -.224980915495D+01 -.831498920982D-08
     .286440502825D-09  .100000000000D+01  .168900000000D+04  .000000000000D+00
     .240000000000D+01  .000000000000D+00 -.111758708954D-07  .670000000000D+02
     .374406000000D+06  .400000000000D+01
22 12  5 24 10  0  0.0  .144018325955D-03  .227373675443D-12  .000000000000D+00
     .188000000000D+03  .393750000000D+01  .529522056719D-08  .197523318583D+01
     .132247805595D-06  .609522964805D-02  .908784568310D-05  .515368118668D+04
     .381600000000D+06 -.614672899246D-07 -.463543967667D-01 -.121071934700D-06
     .927823783128D+00  .188593750000D+03 -.201728133840D+01 -.822284251440D-08
    -.477519890620D-09  .100000000000D+01  .168900000000D+04  .000000000000D+00
     .340000000000D+01  .000000000000D+00 -.167638063431D-07  .188000000000D+03
     .374406000000D+06  .400000000000D+01
24 12  5 24 10  0  0.0 -.678529031575D-04 -.293312041322D-10  .000000000000D+00
     .149000000000D+03 -.189062500000D+02  .470805325217D-08 -.250765333648D+01
    -.819563865662D-06  .895400915761D-02  .989809632301D-05  .515374020576D+04
     .381600000000D+06  .186264514923D-07 -.223331362277D+01  .134110450745D-06
     .940321922377D+00  .173250000000D+03 -.986716527447D+00 -.791211528565D-08
     .519664503255D-09  .100000000000D+01  .168900000000D+04  .000000000000D+00
     .340000000000D+01  .630000000000D+02 -.232830643654D-08  .149000000000D+03
     .374406000000D+06  .400000000000D+01
25 12  5 24 10  0  0.0  .343960709870D-04  .454747350886D-12  .000000000000D+00
     .118000000000D+03 -.106718750000D+03  .402659629533D-08 -.293695684484D+01
    -.550411641598D-05  .168247183319D-02  .699050724506D-05  .515371851349D+04
     .381600000000D+06 -.111758708954D-07  .307334821130D+01  .484287738800D-07
     .968959425918D+00  .250125000000D+03  .670483350129D+00 -.786282751833D-08
    -.585738684082D-10  .100000000000D+01  .168900000000D+04  .000000000000D+00
     .240000000000D+01  .000000000000D+00  .558793544769D-08  .118000000000D+03
     .374406000000D+06  .400000000000D+01
